NORAD_CAT_ID,OBJECT_NAME,OBJECT_TYPE,EPOCH,MEAN_MOTION,ECCENTRICITY,INCLINATION,RA_OF_ASC_NODE,ARG_OF_PERICENTER,MEAN_ANOMALY,BSTAR,MEAN_MOTION_DOT,MEAN_MOTION_DDOT,TLE_LINE0,TLE_LINE1,TLE_LINE2,SEMIMAJOR_AXIS,PERIOD,APOGEE,PERIGEE,DECAYED
49153.0,STARLINK-3072,PAYLOAD,2024-01-01 14:03:10,14.98332488,0.0002936,69.9998,106.7611,268.6112,91.4711,3.4996e-05,3.25e-06,0.0,0 STARLINK-3072,1 49153U 21082Z   24001.58553333  .00000325  00000-0  34996-4 0  9992,2 49153  69.9998 106.7611 0002936 268.6112  91.4711 14.98332488128624,6950.185,96.107,574.091,570.01,0.0
49153.0,STARLINK-3072,PAYLOAD,2024-01-01 17:15:25,14.9833615,0.0002993,69.9999,106.4254,267.7652,92.3164,4.8353e-05,4.84e-06,0.0,0 STARLINK-3072,1 49153U 21082Z   24001.71905010  .00000484  00000-0  48353-4 0  9998,2 49153  69.9999 106.4254 0002993 267.7652  92.3164 14.98336150128641,6950.174,96.107,574.119,569.959,0.0
49153.0,STARLINK-3072,PAYLOAD,2024-01-02 10:52:54,14.98328976,0.000289,70.0003,104.5735,267.2242,92.8586,5.8729e-05,6.08e-06,0.0,0 STARLINK-3072,1 49153U 21082Z   24002.45341362  .00000608  00000-0  58729-4 0  9990,2 49153  70.0003 104.5735 0002890 267.2242  92.8586 14.98328976127536,6950.196,96.107,574.07,570.052,0.0
49153.0,STARLINK-3072,PAYLOAD,2024-01-02 14:05:10,14.98330523,0.0002941,69.9999,104.2368,266.963,93.1192,7.2732e-05,7.75e-06,0.0,0 STARLINK-3072,1 49153U 21082Z   24002.58693193  .00000775  00000-0  72732-4 0  9991,2 49153  69.9999 104.2368 0002941 266.9630  93.1192 14.98330523128775,6950.191,96.107,574.1,570.012,0.0
49153.0,STARLINK-3072,PAYLOAD,2024-01-02 15:41:18,14.98328653,0.0002605,70.0,104.0689,261.6326,98.4537,0.00012404,1.387e-05,0.0,0 STARLINK-3072,1 49153U 21082Z   24002.65369196  .00001387  00000-0  12404-3 0  9991,2 49153  70.0000 104.0689 0002605 261.6326  98.4537 14.98328653128789,6950.197,96.107,573.873,570.252,0.0
49153.0,STARLINK-3072,PAYLOAD,2024-01-03 10:54:55,14.98330989,0.0002621,70.0007,102.0496,253.4557,106.6314,9.2344e-06,1.7e-07,0.0,0 STARLINK-3072,1 49153U 21082Z   24003.45481182  .00000017  00000-0  92344-5 0  9992,2 49153  70.0007 102.0496 0002621 253.4557 106.6314 14.98330989127681,6950.19,96.107,573.876,570.233,0.0
49153.0,STARLINK-3072,PAYLOAD,2024-01-03 14:07:11,14.98331974,0.0002562,70.001,101.7134,253.7146,106.3732,2.0936e-05,1.57e-06,0.0,0 STARLINK-3072,1 49153U 21082Z   24003.58833082  .00000157  00000-0  20936-4 0  9998,2 49153  70.0010 101.7134 0002562 253.7146 106.3732 14.98331974128925,6950.187,96.107,573.832,570.271,0.0
49153.0,STARLINK-3072,PAYLOAD,2024-01-03 15:43:19,14.98332586,0.0002573,70.001,101.5451,255.451,104.6364,2.9507e-05,2.59e-06,0.0,0 STARLINK-3072,1 49153U 21082Z   24003.65509011  .00000259  00000-0  29507-4 0  9994,2 49153  70.0010 101.5451 0002573 255.4510 104.6364 14.98332586128934,6950.185,96.107,573.838,570.262,0.0
49153.0,STARLINK-3072,PAYLOAD,2024-01-04 10:56:56,14.98328691,0.0002498,70.0014,99.5259,248.4548,111.6345,1.1804e-05,4.8e-07,0.0,0 STARLINK-3072,1 49153U 21082Z   24004.45621186  .00000048  00000-0  11804-4 0  9998,2 49153  70.0014  99.5259 0002498 248.4548 111.6345 14.98328691127836,6950.197,96.107,573.798,570.326,0.0
49153.0,STARLINK-3072,PAYLOAD,2024-01-04 14:09:12,14.98327176,0.0002508,70.0014,99.1892,249.1124,110.9767,-6.3942e-06,-1.69e-06,0.0,0 STARLINK-3072,1 49153U 21082Z   24004.58973355 -.00000169  00000-0 -63942-5 0  9997,2 49153  70.0014  99.1892 0002508 249.1124 110.9767 14.98327176129070,6950.202,96.107,573.81,570.324,0.0
49153.0,STARLINK-3072,PAYLOAD,2024-01-04 15:45:21,14.98326819,0.0002618,70.0008,99.0201,257.3667,102.7199,-2.2245e-05,-3.58e-06,0.0,0 STARLINK-3072,1 49153U 21082Z   24004.65649446 -.00000358  00000-0 -22245-4 0  9996,2 49153  70.0008  99.0201 0002618 257.3667 102.7199 14.98326819129083,6950.203,96.107,573.887,570.248,0.0
49153.0,STARLINK-3072,PAYLOAD,2024-01-05 12:35:05,14.98328031,0.0002761,70.0006,96.832,262.5107,97.5738,-1.0408e-05,-2.17e-06,0.0,0 STARLINK-3072,1 49153U 21082Z   24005.52437432 -.00000217  00000-0 -10408-4 0  9995,2 49153  70.0006  96.8320 0002761 262.5107  97.5738 14.98328031127990,6950.199,96.107,573.983,570.145,0.0
49153.0,STARLINK-3072,PAYLOAD,2024-01-05 14:11:13,14.9833521,0.0002744,70.0003,96.663,263.3896,96.695,-0.00014506,-1.824e-05,0.0,0 STARLINK-3072,1 49153U 21082Z   24005.59113314 -.00001824  00000-0 -14506-3 0  9999,2 49153  70.0003  96.6630 0002744 263.3896  96.6950 14.98335210129225,6950.177,96.107,573.949,570.135,0.0
49153.0,STARLINK-3072,PAYLOAD,2024-01-05 15:47:22,14.98328302,0.0002787,70.0004,96.4949,263.6495,96.4347,-1.4781e-05,-2.69e-06,0.0,0 STARLINK-3072,1 49153U 21082Z   24005.65789448 -.00000269  00000-0 -14781-4 0  9991,2 49153  70.0004  96.4949 0002787 263.6495  96.4347 14.98328302129235,6950.198,96.107,574.0,570.126,0.0
49153.0,STARLINK-3072,PAYLOAD,2024-01-06 12:37:06,14.98330647,0.0002832,70.0002,94.3065,261.358,98.7258,7.7549e-05,8.32e-06,0.0,0 STARLINK-3072,1 49153U 21082Z   24006.52577026  .00000832  00000-0  77549-4 0  9990,2 49153  70.0002  94.3065 0002832 261.3580  98.7258 14.98330647128140,6950.191,96.107,574.024,570.088,0.0
49153.0,STARLINK-3072,PAYLOAD,2024-01-06 15:49:22,14.98332521,0.000287,70.0002,93.9688,271.6976,88.3854,9.0638e-05,9.89e-06,0.0,0 STARLINK-3072,1 49153U 21082Z   24006.65928928  .00000989  00000-0  90638-4 0  9992,2 49153  70.0002  93.9688 0002870 271.6976  88.3854 14.98332521129388,6950.185,96.107,574.045,570.055,0.0
49153.0,STARLINK-3072,PAYLOAD,2024-01-07 11:03:00,14.98318256,0.0002545,70.0018,91.9511,233.8254,126.267,-3.9186e-05,-5.6e-06,0.0,0 STARLINK-3072,1 49153U 21082Z   24007.46042096 -.00000560  00000-0 -39186-4 0  9993,2 49153  70.0018  91.9511 0002545 233.8254 126.2670 14.98318256128281,6950.229,96.108,573.863,570.325,0.0
49153.0,STARLINK-3072,PAYLOAD,2024-01-07 14:15:16,14.98323371,0.0002346,70.002,91.6139,259.9788,100.1106,0.00010398,1.148e-05,0.0,0 STARLINK-3072,1 49153U 21082Z   24007.59393643  .00001148  00000-0  10398-3 0  9998,2 49153  70.0020  91.6139 0002346 259.9788 100.1106 14.98323371129524,6950.213,96.107,573.709,570.448,0.0
49153.0,STARLINK-3072,PAYLOAD,2024-01-07 15:51:24,14.98322945,0.0002397,70.0016,91.4447,270.5955,89.493,0.00010264,1.132e-05,0.0,0 STARLINK-3072,1 49153U 21082Z   24007.66069718  .00001132  00000-0  10264-3 0  9994,2 49153  70.0016  91.4447 0002397 270.5955  89.4930 14.98322945129531,6950.215,96.107,573.746,570.414,0.0
49153.0,STARLINK-3072,PAYLOAD,2024-01-08 04:40:28,14.983327,0.00026,70.0007,90.097,272.0212,88.0649,1.5121e-05,8.7e-07,0.0,0 STARLINK-3072,1 49153U 21082Z   24008.19477092  .00000087  00000-0  15121-4 0  9997,2 49153  70.0007  90.0970 0002600 272.0212  88.0649 14.98332700128392,6950.185,96.107,573.857,570.242,0.0
49153.0,STARLINK-3072,PAYLOAD,2024-01-08 14:17:16,14.98329799,0.00022,70.0019,89.0881,286.4022,73.6895,4.7269e-05,4.71e-06,0.0,0 STARLINK-3072,1 49153U 21082Z   24008.59533444  .00000471  00000-0  47269-4 0  9990,2 49153  70.0019  89.0881 0002200 286.4022  73.6895 14.98329799129677,6950.194,96.107,573.588,570.529,0.0
49153.0,STARLINK-3072,PAYLOAD,2024-01-09 04:42:30,14.98316168,0.000266,70.0034,87.5754,264.1275,95.9581,-0.00011231,-1.432e-05,0.0,0 STARLINK-3072,1 49153U 21082Z   24009.19618687 -.00001432  00000-0 -11231-3 0  9999,2 49153  70.0034  87.5754 0002660 264.1275  95.9581 14.98316168128549,6950.236,96.108,573.949,570.252,0.0
49153.0,STARLINK-3072,PAYLOAD,2024-01-09 14:19:19,14.98338545,0.0001889,70.0023,86.5639,279.1395,80.9551,-0.00055074,-6.659e-05,0.0,0 STARLINK-3072,1 49153U 21082Z   24009.59674913 -.00006659  00000-0 -55074-3 0  9996,2 49153  70.0023  86.5639 0001889 279.1395  80.9551 14.98338545129825,6950.166,96.106,573.344,570.719,0.0
49153.0,STARLINK-3072,PAYLOAD,2024-01-10 11:09:03,14.98325745,0.0002906,70.0001,84.3754,265.8171,94.2656,3.957e-05,3.79e-06,0.0,0 STARLINK-3072,1 49153U 21082Z   24010.46462414  .00000379  00000-0  39570-4 0  9990,2 49153  70.0001  84.3754 0002906 265.8171  94.2656 14.98325745129956,6950.206,96.107,574.091,570.051,0.0
49153.0,STARLINK-3072,PAYLOAD,2024-01-10 14:21:19,14.98333198,0.0003007,69.9996,84.0375,266.9808,93.1007,0.00010264,1.132e-05,0.0,0 STARLINK-3072,1 49153U 21082Z   24010.59813797  .00001132  00000-0  10264-3 0  9994,2 49153  69.9996  84.0375 0003007 266.9808  93.1007 14.98333198128750,6950.183,96.107,574.138,569.958,0.0
49153.0,STARLINK-3072,PAYLOAD,2024-01-11 11:11:02,14.98339356,0.0003208,69.9993,81.849,271.2047,88.8745,0.00035439,4.139e-05,0.0,0 STARLINK-3072,1 49153U 21082Z   24011.46600542  .00004139  00000-0  35439-3 0  9994,2 49153  69.9993  81.8490 0003208 271.2047  88.8745 14.98339356128883,6950.164,96.106,574.259,569.799,0.0
49153.0,STARLINK-3072,PAYLOAD,2024-01-11 14:23:18,14.9834785,0.000307,69.9994,81.5124,267.7029,92.3779,0.00042167,4.944e-05,0.0,0 STARLINK-3072,1 49153U 21082Z   24011.59951736  .00004944  00000-0  42167-3 0  9992,2 49153  69.9994  81.5124 0003070 267.7029  92.3779 14.98347850130127,6950.138,96.106,574.136,569.869,0.0
49153.0,STARLINK-3072,PAYLOAD,2024-01-12 03:12:23,14.98341808,0.0001509,70.0028,80.1716,262.7184,97.3804,0.00012761,1.431e-05,0.0,0 STARLINK-3072,1 49153U 21082Z   24012.13360751  .00001431  00000-0  12761-3 0  9999,2 49153  70.0028  80.1716 0001509 262.7184  97.3804 14.98341808128984,6950.156,96.106,573.07,570.973,0.0
49153.0,STARLINK-3072,PAYLOAD,2024-01-12 11:13:05,14.98327703,0.0002542,70.0005,79.3241,252.2951,107.7931,-2.9245e-05,-4.42e-06,0.0,0 STARLINK-3072,1 49153U 21082Z   24012.46741941 -.00000442  00000-0 -29245-4 0  9998,2 49153  70.0005  79.3241 0002542 252.2951 107.7931 14.98327703129038,6950.2,96.107,573.832,570.298,0.0
49153.0,STARLINK-3072,PAYLOAD,2024-01-12 14:25:20,14.9833562,0.0003093,69.9991,78.9867,269.4859,90.5945,-5.5848e-05,-7.59e-06,0.0,0 STARLINK-3072,1 49153U 21082Z   24012.60093508 -.00000759  00000-0 -55848-4 0  9992,2 49153  69.9991  78.9867 0003093 269.4859  90.5945 14.98335620130276,6950.176,96.107,574.19,569.891,0.0
